H1 CPF  1  DLR 2021 02 24 10  5552 technosat            
H2  1704205 6203    42829 2021 02 24 00 00 00 2021 03 03 00 00 00    60 1 1  0 0 0
H9
10 0 59273  36000.000000  0       6746087.882      -1525065.447       -982184.837
10 0 59273  36060.000000  0       6772547.407      -1623330.982       -535737.931
10 0 59273  36120.000000  0       6769761.335      -1714889.029        -87026.899
10 0 59273  36180.000000  0       6737791.618      -1799096.946        362052.085
10 0 59273  36240.000000  0       6676829.055      -1875343.964        809599.862
10 0 59273  36300.000000  0       6587192.315      -1943054.935       1253722.448
10 0 59273  36360.000000  0       6469326.446      -2001693.959       1692539.204
10 0 59273  36420.000000  0       6323800.733      -2050767.825       2124191.035
10 0 59273  36480.000000  0       6151305.945      -2089829.173       2546848.455
10 0 59273  36540.000000  0       5952651.008      -2118479.449       2958719.515
10 0 59273  36600.000000  0       5728759.084      -2136371.625       3358057.551
10 0 59273  36660.000000  0       5480663.158      -2143212.671       3743168.681
10 0 59273  36720.000000  0       5209501.109      -2138765.723       4112419.069
10 0 59273  36780.000000  0       4916510.343      -2122851.959       4464241.865
10 0 59273  36840.000000  0       4603022.068      -2095352.152       4797143.894
10 0 59273  36900.000000  0       4270455.108      -2056207.958       5109712.075
10 0 59273  36960.000000  0       3920309.284      -2005422.904       5400619.459
10 0 59273  37020.000000  0       3554158.412      -1943063.031       5668630.830
10 0 59273  37080.000000  0       3173643.039      -1869257.189       5912607.830
10 0 59273  37140.000000  0       2780462.998      -1784197.012       6131513.674
10 0 59273  37200.000000  0       2376369.728      -1688136.614       6324417.504
10 0 59273  37260.000000  0       1963158.347      -1581391.959       6490498.260
10 0 59273  37320.000000  0       1542659.614      -1464339.886       6629048.108
10 0 59273  37380.000000  0       1116731.715      -1337416.815       6739475.414
10 0 59273  37440.000000  0        687251.997      -1201117.130       6821307.167
10 0 59273  37500.000000  0        256108.680      -1055991.263       6874190.971
10 0 59273  37560.000000  0       -174807.477       -902643.470       6897896.523
10 0 59273  37620.000000  0       -603611.438       -741729.360       6892316.616
10 0 59273  37680.000000  0      -1028432.147       -573953.121       6857467.727
10 0 59273  37740.000000  0      -1447420.745       -400064.435       6793490.051
10 0 59273  37800.000000  0      -1858758.628       -220855.164       6700647.043
10 0 59273  37860.000000  0      -2260665.390        -37155.764       6579324.529
10 0 59273  37920.000000  0      -2651406.643        150168.545       6430029.289
10 0 59273  37980.000000  0      -3029301.629        340221.824       6253387.136
10 0 59273  38040.000000  0      -3392730.617        532081.655       6050140.537
10 0 59273  38100.000000  0      -3740142.105        724803.596       5821145.707
10 0 59273  38160.000000  0      -4070059.701        917425.783       5567369.170
10 0 59273  38220.000000  0      -4381088.673       1108973.700       5289883.865
10 0 59273  38280.000000  0      -4671922.158       1298465.121       4989864.768
10 0 59273  38340.000000  0      -4941347.005       1484915.139       4668584.028
10 0 59273  38400.000000  0      -5188249.172       1667341.257       4327405.606
10 0 59273  38460.000000  0      -5411618.636       1844768.539       3967779.508
10 0 59273  38520.000000  0      -5610553.830       2016234.794       3591235.622
10 0 59273  38580.000000  0      -5784265.594       2180795.741       3199377.171
10 0 59273  38640.000000  0      -5932080.609       2337530.147       2793873.786
10 0 59273  38700.000000  0      -6053444.260       2485544.904       2376454.248
10 0 59273  38760.000000  0      -6147922.965       2623980.006       1948898.934
10 0 59273  38820.000000  0      -6215205.911       2752013.425       1513031.923
10 0 59273  38880.000000  0      -6255106.107       2868865.788       1070712.847
10 0 59273  38940.000000  0      -6267560.771       2973804.851        623828.637
10 0 59273  39000.000000  0      -6252631.186       3066149.755        174285.168
10 0 59273  39060.000000  0      -6210501.911       3145275.059       -276001.271
10 0 59273  39120.000000  0      -6141479.315       3210614.444       -725112.490
10 0 59273  39180.000000  0      -6045989.611       3261664.115      -1171136.883
10 0 59273  39240.000000  0      -5924576.261       3297985.938      -1612177.934
10 0 59273  39300.000000  0      -5777896.767       3319210.251      -2046362.637
10 0 59273  39360.000000  0      -5606718.816       3325038.229      -2471849.714
10 0 59273  39420.000000  0      -5411916.033       3315243.896      -2886837.551
10 0 59273  39480.000000  0      -5194463.247       3289675.805      -3289571.999
10 0 59273  39540.000000  0      -4955431.218       3248258.301      -3678353.864
10 0 59273  39600.000000  0      -4695980.987       3190992.398      -4051546.004
10 0 59273  39660.000000  0      -4417357.920       3117956.277      -4407580.124
10 0 59273  39720.000000  0      -4120885.398       3029305.388      -4744963.234
10 0 59273  39780.000000  0      -3807958.173       2925272.172      -5062283.667
10 0 59273  39840.000000  0      -3480035.541       2806165.417      -5358216.616
10 0 59273  39900.000000  0      -3138634.394       2672369.285      -5631529.332
10 0 59273  39960.000000  0      -2785322.054       2524341.985      -5881085.954
10 0 59273  40020.000000  0      -2421708.898       2362614.090      -6105851.905
10 0 59273  40080.000000  0      -2049440.875       2187786.476      -6304897.769
10 0 59273  40140.000000  0      -1670191.992       2000527.926      -6477402.629
10 0 59273  40200.000000  0      -1285656.889       1801572.515      -6622656.997
10 0 59273  40260.000000  0       -897543.371       1591716.677      -6740065.405
10 0 59273  40320.000000  0       -507564.899       1371815.933      -6829148.475
10 0 59273  40380.000000  0       -117433.240       1142781.414      -6889544.447
10 0 59273  40440.000000  0        271148.743        905576.160      -6921010.453
10 0 59273  40500.000000  0        656494.349        661211.150      -6923423.416
10 0 59273  40560.000000  0       1036940.245        410741.041      -6896780.403
10 0 59273  40620.000000  0       1410853.450        155259.695      -6841198.438
10 0 59273  40680.000000  0       1776638.091       -104104.480      -6756913.906
10 0 59273  40740.000000  0       2132741.949       -366193.336      -6644281.584
10 0 59273  40800.000000  0       2477662.885       -629823.999      -6503773.341
10 0 59273  40860.000000  0       2809955.089       -893794.083      -6335976.266
10 0 59273  40920.000000  0       3128234.961      -1156886.972      -6141590.334
10 0 59273  40980.000000  0       3431186.727      -1417877.202      -5921425.800
10 0 59273  41040.000000  0       3717567.888      -1675536.028      -5676400.215
10 0 59273  41100.000000  0       3986214.389      -1928637.133      -5407534.896
10 0 59273  41160.000000  0       4236045.391      -2175962.366      -5115950.964
10 0 59273  41220.000000  0       4466067.702      -2416307.522      -4802864.989
10 0 59273  41280.000000  0       4675379.823      -2648488.118      -4469584.222
10 0 59273  41340.000000  0       4863175.617      -2871345.160      -4117501.478
10 0 59273  41400.000000  0       5028747.604      -3083750.860      -3748089.621
10 0 59273  41460.000000  0       5171489.843      -3284614.306      -3362895.671
10 0 59273  41520.000000  0       5290900.387      -3472887.032      -2963534.558
10 0 59273  41580.000000  0       5386583.256      -3647568.461      -2551682.477
10 0 59273  41640.000000  0       5458249.882      -3807711.154      -2129069.981
10 0 59273  41700.000000  0       5505720.105      -3952425.888      -1697474.843
10 0 59273  41760.000000  0       5528922.701      -4080886.545      -1258714.592
10 0 59273  41820.000000  0       5527895.332      -4192334.701       -814638.826
10 0 59273  41880.000000  0       5502784.030      -4286083.944       -367121.405
10 0 59273  41940.000000  0       5453842.196      -4361523.934         81947.562
10 0 59273  42000.000000  0       5381428.986      -4418124.065        530669.889
10 0 59273  42060.000000  0       5286007.204      -4455436.751        977147.468
10 0 59273  42120.000000  0       5168140.726      -4473100.340       1419490.488
10 0 59273  42180.000000  0       5028491.413      -4470841.591       1855825.629
10 0 59273  42240.000000  0       4867815.584      -4448477.700       2284304.160
10 0 59273  42300.000000  0       4686960.036      -4405917.919       2703109.909
10 0 59273  42360.000000  0       4486857.678      -4343164.737       3110467.105
10 0 59273  42420.000000  0       4268522.764      -4260314.627       3504648.042
10 0 59273  42480.000000  0       4033045.756      -4157558.352       3883980.544
10 0 59273  42540.000000  0       3781587.801      -4035180.791       4246855.174
10 0 59273  42600.000000  0       3515374.913      -3893560.260       4591732.132
10 0 59273  42660.000000  0       3235691.900      -3733167.359       4917147.784
10 0 59273  42720.000000  0       2943876.128      -3554563.446       5221720.833
10 0 59273  42780.000000  0       2641311.079      -3358398.693       5504158.212
10 0 59273  42840.000000  0       2329419.668      -3145409.626       5763260.576
10 0 59273  42900.000000  0       2009657.439      -2916416.285       5997927.282
10 0 59273  42960.000000  0       1683505.700      -2672319.007       6207160.944
10 0 59273  43020.000000  0       1352464.635      -2414094.851       6390071.577
10 0 59273  43080.000000  0       1018046.344      -2142793.643       6545880.325
10 0 59273  43140.000000  0        681767.877      -1859533.657       6673922.677
99
